[{"OBJECT_NAME":"OBJECT H","OBJECT_ID":"2023-091H","EPOCH":"2026-03-09T22:34:46.487712","MEAN_MOTION":15.26380881,"ECCENTRICITY":0.00117854,"INCLINATION":97.5166,"RA_OF_ASC_NODE":131.4381,"ARG_OF_PERICENTER":104.1062,"MEAN_ANOMALY":256.1487,"EPHEMERIS_TYPE":0,"CLASSIFICATION_TYPE":"U","NORAD_CAT_ID":57173,"ELEMENT_SET_NO":999,"REV_AT_EPOCH":14915,"BSTAR":0.00056321781,"MEAN_MOTION_DOT":0.00014617,"MEAN_MOTION_DDOT":0},{"OBJECT_NAME":"STARLINK-36133","OBJECT_ID":"2025-288E","EPOCH":"2026-03-09T22:24:24.870816","MEAN_MOTION":15.2759578,"ECCENTRICITY":0.00015265,"INCLINATION":43.0034,"RA_OF_ASC_NODE":22.1673,"ARG_OF_PERICENTER":249.2946,"MEAN_ANOMALY":110.7742,"EPHEMERIS_TYPE":0,"CLASSIFICATION_TYPE":"U","NORAD_CAT_ID":66963,"ELEMENT_SET_NO":999,"REV_AT_EPOCH":1532,"BSTAR":0.0015557609,"MEAN_MOTION_DOT":0.00042819,"MEAN_MOTION_DDOT":0}]
